start=new Date('2021-11-25T00:00:00.000Z').valueOf();
sats=[{"MEAN_MOTION_DDOT":"0.0000000000000","MEAN_ELEMENT_THEORY":"SGP4","SEMIMAJOR_AXIS":"6925.359","RA_OF_ASC_NODE":"215.6353","PERIOD":"95.592","TLE_LINE2":"2 48279  53.0527 215.6353 0001783  57.4615 295.8135 15.06396556  3659","OBJECT_ID":"2021-036D","SITE":"AFETR","MEAN_MOTION":"15.06396556","ARG_OF_PERICENTER":"57.4615","COUNTRY_CODE":"US","EPOCH":"2021-11-24T22:00:00.999936","OBJECT_NAME":"STARLINK-2580","PERIAPSIS":"545.989","ELEMENT_SET_NO":"999","TIME_SYSTEM":"UTC","REV_AT_EPOCH":"365","TLE_LINE1":"1 48279U 21036D   21328.91667824 -.00025616  00000-0 -17071-2 0  9991","DECAY_DATE":null,"RCS_SIZE":"LARGE","ECCENTRICITY":"0.00017830","BSTAR":"-0.00170710000000","FILE":"3223205","REF_FRAME":"TEME","MEAN_ANOMALY":"295.8135","LAUNCH_DATE":"2021-04-29","MEAN_MOTION_DOT":"-0.00025616","GP_ID":"190425757","APOAPSIS":"548.459","EPHEMERIS_TYPE":"0","OBJECT_TYPE":"PAYLOAD","CENTER_NAME":"EARTH","NORAD_CAT_ID":"48279","INCLINATION":"53.0527","CLASSIFICATION_TYPE":"U"},{"ELEMENT_SET_NO":"999","PERIAPSIS":"546.036","OBJECT_NAME":"STARLINK-2565","EPOCH":"2021-11-24T07:32:40.955424","COUNTRY_CODE":"US","ARG_OF_PERICENTER":"65.4246","MEAN_MOTION":"15.06388740","SITE":"AFETR","OBJECT_ID":"2021-036E","PERIOD":"95.593","TLE_LINE2":"2 48280  53.0556 288.3371 0001750  65.4246 294.6925 15.06388740 32015","SEMIMAJOR_AXIS":"6925.383","RA_OF_ASC_NODE":"288.3371","MEAN_ELEMENT_THEORY":"SGP4","MEAN_MOTION_DDOT":"0.0000000000000","ECCENTRICITY":"0.00017500","RCS_SIZE":"LARGE","DECAY_DATE":null,"TLE_LINE1":"1 48280U 21036E   21328.31436291 -.00000389  00000-0 -72079-5 0  9991","REV_AT_EPOCH":"3201","TIME_SYSTEM":"UTC","MEAN_MOTION_DOT":"-0.00000389","LAUNCH_DATE":"2021-04-29","FILE":"3223022","REF_FRAME":"TEME","MEAN_ANOMALY":"294.6925","BSTAR":"-0.00000720790000","CLASSIFICATION_TYPE":"U","INCLINATION":"53.0556","NORAD_CAT_ID":"48280","CENTER_NAME":"EARTH","OBJECT_TYPE":"PAYLOAD","EPHEMERIS_TYPE":"0","APOAPSIS":"548.460","GP_ID":"190397793"},{"OBJECT_ID":"2021-036F","PERIOD":"95.592","TLE_LINE2":"2 48281  53.0560 268.5819 0002013  67.7810 292.3392 15.06394453 32283","RA_OF_ASC_NODE":"268.5819","SEMIMAJOR_AXIS":"6925.366","MEAN_ELEMENT_THEORY":"SGP4","MEAN_MOTION_DDOT":"0.0000000000000","ELEMENT_SET_NO":"999","PERIAPSIS":"545.836","OBJECT_NAME":"STARLINK-2520","COUNTRY_CODE":"US","EPOCH":"2021-11-24T06:15:43.585632","ARG_OF_PERICENTER":"67.7810","MEAN_MOTION":"15.06394453","SITE":"AFETR","DECAY_DATE":null,"TLE_LINE1":"1 48281U 21036F   21328.26092113 -.00001249  00000-0 -64926-4 0  9994","REV_AT_EPOCH":"3228","TIME_SYSTEM":"UTC","ECCENTRICITY":"0.00020130","RCS_SIZE":"LARGE","MEAN_MOTION_DOT":"-0.00001249","LAUNCH_DATE":"2021-04-29","FILE":"3223022","REF_FRAME":"TEME","MEAN_ANOMALY":"292.3392","BSTAR":"-0.00006492600000","OBJECT_TYPE":"PAYLOAD","EPHEMERIS_TYPE":"0","APOAPSIS":"548.625","GP_ID":"190398544","CLASSIFICATION_TYPE":"U","INCLINATION":"53.0560","NORAD_CAT_ID":"48281","CENTER_NAME":"EARTH"},{"MEAN_ELEMENT_THEORY":"SGP4","MEAN_MOTION_DDOT":"0.0000000000000","OBJECT_ID":"2021-036G","RA_OF_ASC_NODE":"273.4851","SEMIMAJOR_AXIS":"6925.377","TLE_LINE2":"2 48282  53.0570 273.4851 0001836  67.7205 292.3978 15.06390868 32226","PERIOD":"95.593","ARG_OF_PERICENTER":"67.7205","SITE":"AFETR","MEAN_MOTION":"15.06390868","ELEMENT_SET_NO":"999","EPOCH":"2021-11-24T06:49:33.973536","COUNTRY_CODE":"US","PERIAPSIS":"545.970","OBJECT_NAME":"STARLINK-2558","REV_AT_EPOCH":"3222","TIME_SYSTEM":"UTC","DECAY_DATE":null,"TLE_LINE1":"1 48282U 21036G   21328.28442099 -.00001983  00000-0 -11431-3 0  9996","RCS_SIZE":"LARGE","ECCENTRICITY":"0.00018360","FILE":"3223022","MEAN_ANOMALY":"292.3978","REF_FRAME":"TEME","BSTAR":"-0.00011431000000","MEAN_MOTION_DOT":"-0.00001983","LAUNCH_DATE":"2021-04-29","OBJECT_TYPE":"PAYLOAD","GP_ID":"190398787","APOAPSIS":"548.513","EPHEMERIS_TYPE":"0","CENTER_NAME":"EARTH","NORAD_CAT_ID":"48282","INCLINATION":"53.0570","CLASSIFICATION_TYPE":"U"},{"MEAN_MOTION_DOT":"-0.00000698","LAUNCH_DATE":"2021-04-29","REF_FRAME":"TEME","FILE":"3223022","MEAN_ANOMALY":"295.0063","BSTAR":"-0.00002797200000","OBJECT_TYPE":"PAYLOAD","APOAPSIS":"548.580","EPHEMERIS_TYPE":"0","GP_ID":"190398531","INCLINATION":"53.0556","CLASSIFICATION_TYPE":"U","NORAD_CAT_ID":"48283","CENTER_NAME":"EARTH","OBJECT_ID":"2021-036H","TLE_LINE2":"2 48283  53.0556 273.4998 0001960  65.1129 295.0063 15.06396932 32221","PERIOD":"95.592","RA_OF_ASC_NODE":"273.4998","SEMIMAJOR_AXIS":"6925.358","MEAN_ELEMENT_THEORY":"SGP4","MEAN_MOTION_DDOT":"0.0000000000000","ELEMENT_SET_NO":"999","OBJECT_NAME":"STARLINK-2516","PERIAPSIS":"545.866","EPOCH":"2021-11-24T06:44:15.477216","COUNTRY_CODE":"US","ARG_OF_PERICENTER":"65.1129","MEAN_MOTION":"15.06396932","SITE":"AFETR","DECAY_DATE":null,"TLE_LINE1":"1 48283U 21036H   21328.28073469 -.00000698  00000-0 -27972-4 0  9998","REV_AT_EPOCH":"3222","TIME_SYSTEM":"UTC","ECCENTRICITY":"0.00019600","RCS_SIZE":"LARGE"},{"ARG_OF_PERICENTER":"67.6404","SITE":"AFETR","MEAN_MOTION":"15.06389729","ELEMENT_SET_NO":"999","EPOCH":"2021-11-24T06:38:56.593824","COUNTRY_CODE":"US","PERIAPSIS":"545.965","OBJECT_NAME":"STARLINK-2564","MEAN_ELEMENT_THEORY":"SGP4","MEAN_MOTION_DDOT":"0.0000000000000","OBJECT_ID":"2021-036J","RA_OF_ASC_NODE":"273.5103","SEMIMAJOR_AXIS":"6925.380","TLE_LINE2":"2 48284  53.0527 273.5103 0001848  67.6404 292.4781 15.06389729 32210","PERIOD":"95.593","RCS_SIZE":"LARGE","ECCENTRICITY":"0.00018480","REV_AT_EPOCH":"3221","TIME_SYSTEM":"UTC","DECAY_DATE":null,"TLE_LINE1":"1 48284U 21036J   21328.27704391  .00000181  00000-0  31045-4 0  9994","MEAN_ANOMALY":"292.4781","FILE":"3223022","REF_FRAME":"TEME","BSTAR":"0.00003104500000","MEAN_MOTION_DOT":"0.00000181","LAUNCH_DATE":"2021-04-29","CENTER_NAME":"EARTH","NORAD_CAT_ID":"48284","INCLINATION":"53.0527","CLASSIFICATION_TYPE":"U","OBJECT_TYPE":"PAYLOAD","GP_ID":"190397293","EPHEMERIS_TYPE":"0","APOAPSIS":"548.525"},{"MEAN_ANOMALY":"294.4244","FILE":"3223022","REF_FRAME":"TEME","BSTAR":"0.00003415100000","MEAN_MOTION_DOT":"0.00000227","LAUNCH_DATE":"2021-04-29","OBJECT_TYPE":"PAYLOAD","GP_ID":"190398044","APOAPSIS":"548.479","EPHEMERIS_TYPE":"0","CENTER_NAME":"EARTH","NORAD_CAT_ID":"48285","INCLINATION":"53.0536","CLASSIFICATION_TYPE":"U","MEAN_ELEMENT_THEORY":"SGP4","MEAN_MOTION_DDOT":"0.0000000000000","OBJECT_ID":"2021-036K","SEMIMAJOR_AXIS":"6925.382","RA_OF_ASC_NODE":"273.5284","TLE_LINE2":"2 48285  53.0536 273.5284 0001778  65.6931 294.4244 15.06388947 32213","PERIOD":"95.593","ARG_OF_PERICENTER":"65.6931","MEAN_MOTION":"15.06388947","SITE":"AFETR","ELEMENT_SET_NO":"999","COUNTRY_CODE":"US","EPOCH":"2021-11-24T06:33:38.295360","PERIAPSIS":"546.016","OBJECT_NAME":"STARLINK-2548","REV_AT_EPOCH":"3221","TIME_SYSTEM":"UTC","DECAY_DATE":null,"TLE_LINE1":"1 48285U 21036K   21328.27335990  .00000227  00000-0  34151-4 0  9992","RCS_SIZE":"LARGE","ECCENTRICITY":"0.00017780"},{"CENTER_NAME":"EARTH","NORAD_CAT_ID":"48286","CLASSIFICATION_TYPE":"U","INCLINATION":"53.0566","OBJECT_TYPE":"PAYLOAD","GP_ID":"190426007","EPHEMERIS_TYPE":"0","APOAPSIS":"548.432","FILE":"3223205","REF_FRAME":"TEME","MEAN_ANOMALY":"295.2251","BSTAR":"0.00004452500000","MEAN_MOTION_DOT":"0.00000382","LAUNCH_DATE":"2021-04-29","RCS_SIZE":"LARGE","ECCENTRICITY":"0.00017270","REV_AT_EPOCH":"3229","TIME_SYSTEM":"UTC","DECAY_DATE":null,"TLE_LINE1":"1 48286U 21036L   21328.80044430  .00000382  00000-0  44525-4 0  9996","ARG_OF_PERICENTER":"64.8918","SITE":"AFETR","MEAN_MOTION":"15.06392632","ELEMENT_SET_NO":"999","EPOCH":"2021-11-24T19:12:38.387520","COUNTRY_CODE":"US","OBJECT_NAME":"STARLINK-2547","PERIAPSIS":"546.040","MEAN_ELEMENT_THEORY":"SGP4","MEAN_MOTION_DDOT":"0.0000000000000","OBJECT_ID":"2021-036L","SEMIMAJOR_AXIS":"6925.371","RA_OF_ASC_NODE":"271.1638","PERIOD":"95.593","TLE_LINE2":"2 48286  53.0566 271.1638 0001727  64.8918 295.2251 15.06392632 32295"},{"ECCENTRICITY":"0.00021030","RCS_SIZE":"LARGE","TLE_LINE1":"1 48287U 21036M   21328.26601058 -.00002926  00000-0 -17768-3 0  9998","DECAY_DATE":null,"TIME_SYSTEM":"UTC","REV_AT_EPOCH":"3221","PERIAPSIS":"545.822","OBJECT_NAME":"STARLINK-2566","COUNTRY_CODE":"US","EPOCH":"2021-11-24T06:23:03.314112","ELEMENT_SET_NO":"999","MEAN_MOTION":"15.06378744","SITE":"AFETR","ARG_OF_PERICENTER":"34.5289","TLE_LINE2":"2 48287  53.0542 273.5625 0002103  34.5289 325.5836 15.06378744 32212","PERIOD":"95.593","SEMIMAJOR_AXIS":"6925.414","RA_OF_ASC_NODE":"273.5625","OBJECT_ID":"2021-036M","MEAN_MOTION_DDOT":"0.0000000000000","MEAN_ELEMENT_THEORY":"SGP4","INCLINATION":"53.0542","CLASSIFICATION_TYPE":"U","NORAD_CAT_ID":"48287","CENTER_NAME":"EARTH","EPHEMERIS_TYPE":"0","APOAPSIS":"548.735","GP_ID":"190399032","OBJECT_TYPE":"PAYLOAD","LAUNCH_DATE":"2021-04-29","MEAN_MOTION_DOT":"-0.00002926","BSTAR":"-0.00017768000000","REF_FRAME":"TEME","FILE":"3223022","MEAN_ANOMALY":"325.5836"},{"OBJECT_TYPE":"PAYLOAD","APOAPSIS":"548.605","EPHEMERIS_TYPE":"0","GP_ID":"190397794","INCLINATION":"53.0567","CLASSIFICATION_TYPE":"U","NORAD_CAT_ID":"48288","CENTER_NAME":"EARTH","MEAN_MOTION_DOT":"-0.00001388","LAUNCH_DATE":"2021-04-29","REF_FRAME":"TEME","FILE":"3223022","MEAN_ANOMALY":"288.2831","BSTAR":"-0.00007429000000","DECAY_DATE":null,"TLE_LINE1":"1 48288U 21036N   21328.26230110 -.00001388  00000-0 -74290-4 0  9991","REV_AT_EPOCH":"3221","TIME_SYSTEM":"UTC","ECCENTRICITY":"0.00019770","RCS_SIZE":"LARGE","OBJECT_ID":"2021-036N","TLE_LINE2":"2 48288  53.0567 273.5800 0001977  71.8374 288.2831 15.06392749 32213","PERIOD":"95.593","RA_OF_ASC_NODE":"273.5800","SEMIMAJOR_AXIS":"6925.371","MEAN_ELEMENT_THEORY":"SGP4","MEAN_MOTION_DDOT":"0.0000000000000","ELEMENT_SET_NO":"999","PERIAPSIS":"545.867","OBJECT_NAME":"STARLINK-2562","COUNTRY_CODE":"US","EPOCH":"2021-11-24T06:17:42.815040","ARG_OF_PERICENTER":"71.8374","MEAN_MOTION":"15.06392749","SITE":"AFETR"}];
